EUTELSAT QUANTUM        
1 49056U 21069B   25347.64117041  .00000141  00000+0  00000+0 0  9991
2 49056   0.0246  43.9854 0003588 231.2877  85.8237  1.00273236 16065
EUTELSAT KONNECT VHTS   
1 53765U 22110A   25346.99025369  .00000030  00000+0  00000+0 0  9996
2 53765   0.0657 101.0037 0002383 141.1037 199.0310  1.00271501  4959
EUTELSAT HOTBIRD 13F    
1 54048U 22134A   25347.63432370  .00000102  00000+0  00000+0 0  9993
2 54048   0.0478 293.4985 0002297  66.2228 324.1956  1.00270384 11511
EUTELSAT HOTBIRD 13G    
1 54225U 22146A   25347.34892853  .00000101  00000+0  00000+0 0  9996
2 54225   0.0478 234.0643 0001736 306.9385  39.8842  1.00272446  5603
EUTELSAT 10B            
1 54259U 22157A   25346.99164036  .00000081  00000+0  00000+0 0  9997
2 54259   0.0620  99.0663 0000683  52.9272 296.8936  1.00270562 11167
EUTELSAT 36D            
1 59346U 24059A   25346.92547558  .00000000  00000+0  00000+0 0  9990
2 59346   0.0196 350.3258 0000686   5.8335  94.7140  1.00269446  6288
